[
  {
    "OBJECT_NAME": "HST",
    "OBJECT_ID": "1990-037B",
    "EPOCH": "2026-04-05T15:01:46.095744",
    "MEAN_MOTION": 15.29942321,
    "ECCENTRICITY": 0.0002248,
    "INCLINATION": 28.4724,
    "RA_OF_ASC_NODE": 216.1877,
    "ARG_OF_PERICENTER": 70.2835,
    "MEAN_ANOMALY": 289.8004,
    "EPHEMERIS_TYPE": 0,
    "CLASSIFICATION_TYPE": "U",
    "NORAD_CAT_ID": 20580,
    "ELEMENT_SET_NO": 999,
    "REV_AT_EPOCH": 77744,
    "BSTAR": 0.00030389,
    "MEAN_MOTION_DOT": 9.304e-5,
    "MEAN_MOTION_DDOT": 0
  },
  {
    "OBJECT_NAME": "POLAR",
    "OBJECT_ID": "1996-013A",
    "EPOCH": "2026-04-04T20:46:39.789984",
    "MEAN_MOTION": 1.29845718,
    "ECCENTRICITY": 0.6396427,
    "INCLINATION": 79.7826,
    "RA_OF_ASC_NODE": 227.8965,
    "ARG_OF_PERICENTER": 211.5804,
    "MEAN_ANOMALY": 85.531,
    "EPHEMERIS_TYPE": 0,
    "CLASSIFICATION_TYPE": "U",
    "NORAD_CAT_ID": 23802,
    "ELEMENT_SET_NO": 999,
    "REV_AT_EPOCH": 14390,
    "BSTAR": 0,
    "MEAN_MOTION_DOT": 1.05e-6,
    "MEAN_MOTION_DDOT": 0
  },
  {
    "OBJECT_NAME": "SWAS",
    "OBJECT_ID": "1998-071A",
    "EPOCH": "2026-04-05T21:53:11.904576",
    "MEAN_MOTION": 15.09117272,
    "ECCENTRICITY": 0.00062643,
    "INCLINATION": 69.8972,
    "RA_OF_ASC_NODE": 53.8297,
    "ARG_OF_PERICENTER": 333.1151,
    "MEAN_ANOMALY": 26.9687,
    "EPHEMERIS_TYPE": 0,
    "CLASSIFICATION_TYPE": "U",
    "NORAD_CAT_ID": 25560,
    "ELEMENT_SET_NO": 999,
    "REV_AT_EPOCH": 48636,
    "BSTAR": 0.00031725941,
    "MEAN_MOTION_DOT": 4.943e-5,
    "MEAN_MOTION_DDOT": 0
  },
  {
    "OBJECT_NAME": "CXO",
    "OBJECT_ID": "1999-040B",
    "EPOCH": "2026-04-07T23:25:36.920064",
    "MEAN_MOTION": 0.37800804,
    "ECCENTRICITY": 0.79498416,
    "INCLINATION": 55.016,
    "RA_OF_ASC_NODE": 118.749,
    "ARG_OF_PERICENTER": 310.6166,
    "MEAN_ANOMALY": 0.2827,
    "EPHEMERIS_TYPE": 0,
    "CLASSIFICATION_TYPE": "U",
    "NORAD_CAT_ID": 25867,
    "ELEMENT_SET_NO": 999,
    "REV_AT_EPOCH": 1706,
    "BSTAR": 0,
    "MEAN_MOTION_DOT": 8.67e-6,
    "MEAN_MOTION_DDOT": 0
  },
  {
    "OBJECT_NAME": "XMM-NEWTON",
    "OBJECT_ID": "1999-066A",
    "EPOCH": "2026-04-05T13:09:05.647392",
    "MEAN_MOTION": 0.50130994,
    "ECCENTRICITY": 0.4698499,
    "INCLINATION": 64.8516,
    "RA_OF_ASC_NODE": 283.9204,
    "ARG_OF_PERICENTER": 66.1986,
    "MEAN_ANOMALY": 0.0494,
    "EPHEMERIS_TYPE": 0,
    "CLASSIFICATION_TYPE": "U",
    "NORAD_CAT_ID": 25989,
    "ELEMENT_SET_NO": 999,
    "REV_AT_EPOCH": 2264,
    "BSTAR": 0,
    "MEAN_MOTION_DOT": 6.9e-7,
    "MEAN_MOTION_DDOT": 0
  },
  {
    "OBJECT_NAME": "TERRA",
    "OBJECT_ID": "1999-068A",
    "EPOCH": "2026-04-05T21:39:28.291392",
    "MEAN_MOTION": 14.61045942,
    "ECCENTRICITY": 0.00036722,
    "INCLINATION": 97.9536,
    "RA_OF_ASC_NODE": 148.2897,
    "ARG_OF_PERICENTER": 95.8461,
    "MEAN_ANOMALY": 316.3359,
    "EPHEMERIS_TYPE": 0,
    "CLASSIFICATION_TYPE": "U",
    "NORAD_CAT_ID": 25994,
    "ELEMENT_SET_NO": 999,
    "REV_AT_EPOCH": 39905,
    "BSTAR": 0.00013005215,
    "MEAN_MOTION_DOT": 5.94e-6,
    "MEAN_MOTION_DDOT": 0
  },
  {
    "OBJECT_NAME": "CLUSTER II-FM7 (SAMBA)",
    "OBJECT_ID": "2000-041A",
    "EPOCH": "2026-03-31T00:54:20.014560",
    "MEAN_MOTION": 0.44796982,
    "ECCENTRICITY": 0.89530667,
    "INCLINATION": 149.3581,
    "RA_OF_ASC_NODE": 38.1493,
    "ARG_OF_PERICENTER": 254.4502,
    "MEAN_ANOMALY": 0.4223,
    "EPHEMERIS_TYPE": 0,
    "CLASSIFICATION_TYPE": "U",
    "NORAD_CAT_ID": 26410,
    "ELEMENT_SET_NO": 999,
    "REV_AT_EPOCH": 1996,
    "BSTAR": 0,
    "MEAN_MOTION_DOT": 2.444e-5,
    "MEAN_MOTION_DDOT": 0
  },
  {
    "OBJECT_NAME": "CLUSTER II-FM8 (TANGO)",
    "OBJECT_ID": "2000-045B",
    "EPOCH": "2026-04-04T02:40:07.903776",
    "MEAN_MOTION": 0.44400104,
    "ECCENTRICITY": 0.89621495,
    "INCLINATION": 149.6837,
    "RA_OF_ASC_NODE": 39.5667,
    "ARG_OF_PERICENTER": 255.7736,
    "MEAN_ANOMALY": 0.6086,
    "EPHEMERIS_TYPE": 0,
    "CLASSIFICATION_TYPE": "U",
    "NORAD_CAT_ID": 26464,
    "ELEMENT_SET_NO": 999,
    "REV_AT_EPOCH": 1997,
    "BSTAR": 0,
    "MEAN_MOTION_DOT": 3.194e-5,
    "MEAN_MOTION_DDOT": 0
  },
  {
    "OBJECT_NAME": "ODIN",
    "OBJECT_ID": "2001-007A",
    "EPOCH": "2026-04-05T14:30:01.482912",
    "MEAN_MOTION": 15.61468513,
    "ECCENTRICITY": 0.0004379,
    "INCLINATION": 97.4006,
    "RA_OF_ASC_NODE": 132.7992,
    "ARG_OF_PERICENTER": 83.9401,
    "MEAN_ANOMALY": 276.2355,
    "EPHEMERIS_TYPE": 0,
    "CLASSIFICATION_TYPE": "U",
    "NORAD_CAT_ID": 26702,
    "ELEMENT_SET_NO": 999,
    "REV_AT_EPOCH": 37803,
    "BSTAR": 0.00064048,
    "MEAN_MOTION_DOT": 0.00054902,
    "MEAN_MOTION_DDOT": 0
  },
  {
    "OBJECT_NAME": "TIMED",
    "OBJECT_ID": "2001-055B",
    "EPOCH": "2026-04-05T22:44:06.970560",
    "MEAN_MOTION": 14.95125426,
    "ECCENTRICITY": 0.00025591,
    "INCLINATION": 74.0711,
    "RA_OF_ASC_NODE": 20.4548,
    "ARG_OF_PERICENTER": 240.0055,
    "MEAN_ANOMALY": 120.0876,
    "EPHEMERIS_TYPE": 0,
    "CLASSIFICATION_TYPE": "U",
    "NORAD_CAT_ID": 26998,
    "ELEMENT_SET_NO": 999,
    "REV_AT_EPOCH": 32002,
    "BSTAR": 0.00020907375,
    "MEAN_MOTION_DOT": 2.255e-5,
    "MEAN_MOTION_DDOT": 0
  },
  {
    "OBJECT_NAME": "CORIOLIS",
    "OBJECT_ID": "2003-001A",
    "EPOCH": "2026-04-05T23:16:57.303552",
    "MEAN_MOTION": 14.19924022,
    "ECCENTRICITY": 0.00150335,
    "INCLINATION": 98.7156,
    "RA_OF_ASC_NODE": 103.9514,
    "ARG_OF_PERICENTER": 63.3537,
    "MEAN_ANOMALY": 296.9177,
    "EPHEMERIS_TYPE": 0,
    "CLASSIFICATION_TYPE": "U",
    "NORAD_CAT_ID": 27640,
    "ELEMENT_SET_NO": 999,
    "REV_AT_EPOCH": 20397,
    "BSTAR": 0.00010067313,
    "MEAN_MOTION_DOT": 1.7e-6,
    "MEAN_MOTION_DDOT": 0
  },
  {
    "OBJECT_NAME": "SORCE",
    "OBJECT_ID": "2003-004A",
    "EPOCH": "2026-04-05T22:30:41.962752",
    "MEAN_MOTION": 15.0332167,
    "ECCENTRICITY": 0.00185662,
    "INCLINATION": 39.9914,
    "RA_OF_ASC_NODE": 313.7612,
    "ARG_OF_PERICENTER": 254.983,
    "MEAN_ANOMALY": 104.8909,
    "EPHEMERIS_TYPE": 0,
    "CLASSIFICATION_TYPE": "U",
    "NORAD_CAT_ID": 27651,
    "ELEMENT_SET_NO": 999,
    "REV_AT_EPOCH": 26102,
    "BSTAR": 0.00029414489,
    "MEAN_MOTION_DOT": 3.927e-5,
    "MEAN_MOTION_DDOT": 0
  },
  {
    "OBJECT_NAME": "MOST",
    "OBJECT_ID": "2003-031D",
    "EPOCH": "2026-04-05T18:32:41.131392",
    "MEAN_MOTION": 14.21307199,
    "ECCENTRICITY": 0.00109846,
    "INCLINATION": 98.7077,
    "RA_OF_ASC_NODE": 104.5025,
    "ARG_OF_PERICENTER": 100.6115,
    "MEAN_ANOMALY": 259.63,
    "EPHEMERIS_TYPE": 0,
    "CLASSIFICATION_TYPE": "U",
    "NORAD_CAT_ID": 27843,
    "ELEMENT_SET_NO": 999,
    "REV_AT_EPOCH": 18042,
    "BSTAR": 7.3634041e-5,
    "MEAN_MOTION_DOT": 1.17e-6,
    "MEAN_MOTION_DDOT": 0
  },
  {
    "OBJECT_NAME": "SCISAT 1",
    "OBJECT_ID": "2003-036A",
    "EPOCH": "2026-04-05T18:20:40.986528",
    "MEAN_MOTION": 14.81365037,
    "ECCENTRICITY": 0.00064714,
    "INCLINATION": 73.9299,
    "RA_OF_ASC_NODE": 315.2321,
    "ARG_OF_PERICENTER": 27.4577,
    "MEAN_ANOMALY": 332.694,
    "EPHEMERIS_TYPE": 0,
    "CLASSIFICATION_TYPE": "U",
    "NORAD_CAT_ID": 27858,
    "ELEMENT_SET_NO": 999,
    "REV_AT_EPOCH": 22072,
    "BSTAR": 0.00013244658,
    "MEAN_MOTION_DOT": 9.99e-6,
    "MEAN_MOTION_DDOT": 0
  }
]
